[{"OBJECT_NAME":"STARLINK-34370","OBJECT_ID":"2025-123U","EPOCH":"2026-02-16T23:12:55.334304","MEAN_MOTION":14.98335374,"ECCENTRICITY":0.0002607,"INCLINATION":69.9988,"RA_OF_ASC_NODE":246.7311,"ARG_OF_PERICENTER":269.373,"MEAN_ANOMALY":90.713,"EPHEMERIS_TYPE":0,"CLASSIFICATION_TYPE":"U","NORAD_CAT_ID":64309,"ELEMENT_SET_NO":999,"REV_AT_EPOCH":3851,"BSTAR":0.00020699,"MEAN_MOTION_DOT":2.378e-5,"MEAN_MOTION_DDOT":0},{"OBJECT_NAME":"STARLINK-34357","OBJECT_ID":"2025-123V","EPOCH":"2026-02-16T23:42:44.268768","MEAN_MOTION":14.98352724,"ECCENTRICITY":0.0003474,"INCLINATION":69.9975,"RA_OF_ASC_NODE":246.8087,"ARG_OF_PERICENTER":273.3291,"MEAN_ANOMALY":86.7471,"EPHEMERIS_TYPE":0,"CLASSIFICATION_TYPE":"U","NORAD_CAT_ID":64310,"ELEMENT_SET_NO":999,"REV_AT_EPOCH":3851,"BSTAR":0.00072588,"MEAN_MOTION_DOT":8.584e-5,"MEAN_MOTION_DDOT":0},{"OBJECT_NAME":"STARLINK-34368","OBJECT_ID":"2025-123W","EPOCH":"2026-02-16T23:30:42.954048","MEAN_MOTION":14.98333104,"ECCENTRICITY":0.0002892,"INCLINATION":69.9994,"RA_OF_ASC_NODE":246.7726,"ARG_OF_PERICENTER":264.0645,"MEAN_ANOMALY":96.0184,"EPHEMERIS_TYPE":0,"CLASSIFICATION_TYPE":"U","NORAD_CAT_ID":64311,"ELEMENT_SET_NO":999,"REV_AT_EPOCH":3851,"BSTAR":0.00020904,"MEAN_MOTION_DOT":2.402e-5,"MEAN_MOTION_DDOT":0},{"OBJECT_NAME":"STARLINK-34384","OBJECT_ID":"2025-123X","EPOCH":"2026-02-16T23:18:41.679936","MEAN_MOTION":14.9833816,"ECCENTRICITY":0.0002683,"INCLINATION":69.9989,"RA_OF_ASC_NODE":246.7499,"ARG_OF_PERICENTER":273.8332,"MEAN_ANOMALY":86.252,"EPHEMERIS_TYPE":0,"CLASSIFICATION_TYPE":"U","NORAD_CAT_ID":64312,"ELEMENT_SET_NO":999,"REV_AT_EPOCH":3851,"BSTAR":0.00031231,"MEAN_MOTION_DOT":3.636e-5,"MEAN_MOTION_DDOT":0},{"OBJECT_NAME":"STARLINK-34358","OBJECT_ID":"2025-123Y","EPOCH":"2026-02-16T23:06:40.759200","MEAN_MOTION":14.98331365,"ECCENTRICITY":0.0002441,"INCLINATION":69.999,"RA_OF_ASC_NODE":246.7195,"ARG_OF_PERICENTER":266.2614,"MEAN_ANOMALY":93.8266,"EPHEMERIS_TYPE":0,"CLASSIFICATION_TYPE":"U","NORAD_CAT_ID":64313,"ELEMENT_SET_NO":999,"REV_AT_EPOCH":3851,"BSTAR":0.0004314,"MEAN_MOTION_DOT":5.058e-5,"MEAN_MOTION_DDOT":0},{"OBJECT_NAME":"STARLINK-34354","OBJECT_ID":"2025-123Z","EPOCH":"2026-02-16T22:54:39.695040","MEAN_MOTION":14.98342793,"ECCENTRICITY":0.0003357,"INCLINATION":69.9986,"RA_OF_ASC_NODE":246.6879,"ARG_OF_PERICENTER":286.5749,"MEAN_ANOMALY":73.5041,"EPHEMERIS_TYPE":0,"CLASSIFICATION_TYPE":"U","NORAD_CAT_ID":64314,"ELEMENT_SET_NO":999,"REV_AT_EPOCH":3851,"BSTAR":0.00084346,"MEAN_MOTION_DOT":9.989e-5,"MEAN_MOTION_DDOT":0},{"OBJECT_NAME":"STARLINK-34387","OBJECT_ID":"2025-123AA","EPOCH":"2026-02-16T22:42:37.893024","MEAN_MOTION":14.98333306,"ECCENTRICITY":0.0002701,"INCLINATION":69.9988,"RA_OF_ASC_NODE":246.662,"ARG_OF_PERICENTER":270.1799,"MEAN_ANOMALY":89.9051,"EPHEMERIS_TYPE":0,"CLASSIFICATION_TYPE":"U","NORAD_CAT_ID":64315,"ELEMENT_SET_NO":999,"REV_AT_EPOCH":3851,"BSTAR":0.00020586,"MEAN_MOTION_DOT":2.364e-5,"MEAN_MOTION_DDOT":0},{"OBJECT_NAME":"STARLINK-33590","OBJECT_ID":"2025-123AB","EPOCH":"2026-02-16T22:55:24.589344","MEAN_MOTION":14.96748133,"ECCENTRICITY":0.0005265,"INCLINATION":70.0031,"RA_OF_ASC_NODE":246.6855,"ARG_OF_PERICENTER":79.1548,"MEAN_ANOMALY":281.0202,"EPHEMERIS_TYPE":0,"CLASSIFICATION_TYPE":"U","NORAD_CAT_ID":64316,"ELEMENT_SET_NO":999,"REV_AT_EPOCH":3851,"BSTAR":-0.063022,"MEAN_MOTION_DOT":-0.00674137,"MEAN_MOTION_DDOT":0},{"OBJECT_NAME":"STARLINK-11736 [DTC]","OBJECT_ID":"2025-124A","EPOCH":"2026-02-17T04:02:39.466176","MEAN_MOTION":15.71261092,"ECCENTRICITY":0.0003417,"INCLINATION":43.0003,"RA_OF_ASC_NODE":153.207,"ARG_OF_PERICENTER":229.2064,"MEAN_ANOMALY":130.8508,"EPHEMERIS_TYPE":0,"CLASSIFICATION_TYPE":"U","NORAD_CAT_ID":64317,"ELEMENT_SET_NO":999,"REV_AT_EPOCH":3960,"BSTAR":0.0024487,"MEAN_MOTION_DOT":0.00332507,"MEAN_MOTION_DDOT":0},{"OBJECT_NAME":"STARLINK-11673 [DTC]","OBJECT_ID":"2025-124B","EPOCH":"2026-02-16T16:51:10.168128","MEAN_MOTION":15.70894195,"ECCENTRICITY":0.0001888,"INCLINATION":43.0002,"RA_OF_ASC_NODE":155.7198,"ARG_OF_PERICENTER":316.6231,"MEAN_ANOMALY":43.4488,"EPHEMERIS_TYPE":0,"CLASSIFICATION_TYPE":"U","NORAD_CAT_ID":64318,"ELEMENT_SET_NO":999,"REV_AT_EPOCH":3953,"BSTAR":0.0017626,"MEAN_MOTION_DOT":0.0023269,"MEAN_MOTION_DDOT":0},{"OBJECT_NAME":"STARLINK-11671 [DTC]","OBJECT_ID":"2025-124C","EPOCH":"2026-02-16T15:04:18.031008","MEAN_MOTION":15.7091272,"ECCENTRICITY":0.0002672,"INCLINATION":43.0028,"RA_OF_ASC_NODE":156.0165,"ARG_OF_PERICENTER":264.6398,"MEAN_ANOMALY":95.4165,"EPHEMERIS_TYPE":0,"CLASSIFICATION_TYPE":"U","NORAD_CAT_ID":64319,"ELEMENT_SET_NO":999,"REV_AT_EPOCH":3952,"BSTAR":0.0015753,"MEAN_MOTION_DOT":0.00207457,"MEAN_MOTION_DDOT":0},{"OBJECT_NAME":"STARLINK-11594 [DTC]","OBJECT_ID":"2025-124D","EPOCH":"2026-02-16T17:29:23.317440","MEAN_MOTION":15.70907543,"ECCENTRICITY":7.38e-5,"INCLINATION":42.9994,"RA_OF_ASC_NODE":155.93,"ARG_OF_PERICENTER":255.4883,"MEAN_ANOMALY":104.5903,"EPHEMERIS_TYPE":0,"CLASSIFICATION_TYPE":"U","NORAD_CAT_ID":64320,"ELEMENT_SET_NO":999,"REV_AT_EPOCH":3953,"BSTAR":0.0015397,"MEAN_MOTION_DOT":0.00202586,"MEAN_MOTION_DDOT":0},{"OBJECT_NAME":"STARLINK-11596 [DTC]","OBJECT_ID":"2025-124E","EPOCH":"2026-02-16T15:42:32.529024","MEAN_MOTION":15.70883049,"ECCENTRICITY":0.0001283,"INCLINATION":43.0005,"RA_OF_ASC_NODE":156.2294,"ARG_OF_PERICENTER":319.9689,"MEAN_ANOMALY":40.1083,"EPHEMERIS_TYPE":0,"CLASSIFICATION_TYPE":"U","NORAD_CAT_ID":64321,"ELEMENT_SET_NO":999,"REV_AT_EPOCH":3952,"BSTAR":0.0020028,"MEAN_MOTION_DOT":0.00265391,"MEAN_MOTION_DDOT":0},{"OBJECT_NAME":"STARLINK-11747 [DTC]","OBJECT_ID":"2025-124F","EPOCH":"2026-02-16T16:58:48.234144","MEAN_MOTION":15.70897198,"ECCENTRICITY":0.0001216,"INCLINATION":42.9992,"RA_OF_ASC_NODE":155.7598,"ARG_OF_PERICENTER":271.928,"MEAN_ANOMALY":88.1448,"EPHEMERIS_TYPE":0,"CLASSIFICATION_TYPE":"U","NORAD_CAT_ID":64322,"ELEMENT_SET_NO":999,"REV_AT_EPOCH":3953,"BSTAR":0.0013662,"MEAN_MOTION_DOT":0.00179109,"MEAN_MOTION_DDOT":0},{"OBJECT_NAME":"STARLINK-11728 [DTC]","OBJECT_ID":"2025-124G","EPOCH":"2026-02-16T16:12:56.058048","MEAN_MOTION":15.70928636,"ECCENTRICITY":0.0002169,"INCLINATION":42.9991,"RA_OF_ASC_NODE":155.5054,"ARG_OF_PERICENTER":298.3274,"MEAN_ANOMALY":61.7375,"EPHEMERIS_TYPE":0,"CLASSIFICATION_TYPE":"U","NORAD_CAT_ID":64323,"ELEMENT_SET_NO":999,"REV_AT_EPOCH":3953,"BSTAR":0.0023979,"MEAN_MOTION_DOT":0.00320593,"MEAN_MOTION_DDOT":0},{"OBJECT_NAME":"STARLINK-11696 [DTC]","OBJECT_ID":"2025-124H","EPOCH":"2026-02-16T17:59:46.826592","MEAN_MOTION":15.70907343,"ECCENTRICITY":0.0002028,"INCLINATION":43,"RA_OF_ASC_NODE":155.2043,"ARG_OF_PERICENTER":257.109,"MEAN_ANOMALY":102.9551,"EPHEMERIS_TYPE":0,"CLASSIFICATION_TYPE":"U","NORAD_CAT_ID":64324,"ELEMENT_SET_NO":999,"REV_AT_EPOCH":3954,"BSTAR":0.0016339,"MEAN_MOTION_DOT":0.00215334,"MEAN_MOTION_DDOT":0},{"OBJECT_NAME":"STARLINK-11698 [DTC]","OBJECT_ID":"2025-124J","EPOCH":"2026-02-16T18:08:45.300768","MEAN_MOTION":15.70881267,"ECCENTRICITY":0.000213,"INCLINATION":43.0005,"RA_OF_ASC_NODE":155.2543,"ARG_OF_PERICENTER":3.7639,"MEAN_ANOMALY":356.3244,"EPHEMERIS_TYPE":0,"CLASSIFICATION_TYPE":"U","NORAD_CAT_ID":64325,"ELEMENT_SET_NO":999,"REV_AT_EPOCH":3954,"BSTAR":0.0021426,"MEAN_MOTION_DOT":0.0028459,"MEAN_MOTION_DDOT":0},{"OBJECT_NAME":"STARLINK-11678 [DTC]","OBJECT_ID":"2025-124K","EPOCH":"2026-02-16T18:38:00.813120","MEAN_MOTION":15.70874845,"ECCENTRICITY":0.0001783,"INCLINATION":42.9994,"RA_OF_ASC_NODE":155.4181,"ARG_OF_PERICENTER":310.2333,"MEAN_ANOMALY":49.8379,"EPHEMERIS_TYPE":0,"CLASSIFICATION_TYPE":"U","NORAD_CAT_ID":64326,"ELEMENT_SET_NO":999,"REV_AT_EPOCH":3954,"BSTAR":0.0019851,"MEAN_MOTION_DOT":0.00262866,"MEAN_MOTION_DDOT":0},{"OBJECT_NAME":"STARLINK-11674 [DTC]","OBJECT_ID":"2025-124L","EPOCH":"2026-02-16T14:49:00.814656","MEAN_MOTION":15.70873824,"ECCENTRICITY":0.0004856,"INCLINATION":43.0009,"RA_OF_ASC_NODE":155.9284,"ARG_OF_PERICENTER":305.6583,"MEAN_ANOMALY":54.3832,"EPHEMERIS_TYPE":0,"CLASSIFICATION_TYPE":"U","NORAD_CAT_ID":64327,"ELEMENT_SET_NO":999,"REV_AT_EPOCH":3952,"BSTAR":0.0016033,"MEAN_MOTION_DOT":0.00210964,"MEAN_MOTION_DDOT":0},{"OBJECT_NAME":"STARLINK-11707 [DTC]","OBJECT_ID":"2025-124M","EPOCH":"2026-02-16T07:34:09.156864","MEAN_MOTION":15.70971446,"ECCENTRICITY":0.0001212,"INCLINATION":42.9996,"RA_OF_ASC_NODE":157.97,"ARG_OF_PERICENTER":234.5195,"MEAN_ANOMALY":125.556,"EPHEMERIS_TYPE":0,"CLASSIFICATION_TYPE":"U","NORAD_CAT_ID":64328,"ELEMENT_SET_NO":999,"REV_AT_EPOCH":3947,"BSTAR":0.0019516,"MEAN_MOTION_DOT":0.00259364,"MEAN_MOTION_DDOT":0},{"OBJECT_NAME":"STARLINK-11734 [DTC]","OBJECT_ID":"2025-124N","EPOCH":"2026-02-16T16:05:17.273184","MEAN_MOTION":15.70888477,"ECCENTRICITY":0.0001504,"INCLINATION":43,"RA_OF_ASC_NODE":155.4575,"ARG_OF_PERICENTER":306.8868,"MEAN_ANOMALY":53.1862,"EPHEMERIS_TYPE":0,"CLASSIFICATION_TYPE":"U","NORAD_CAT_ID":64329,"ELEMENT_SET_NO":999,"REV_AT_EPOCH":3953,"BSTAR":0.0025078,"MEAN_MOTION_DOT":0.00335351,"MEAN_MOTION_DDOT":0},{"OBJECT_NAME":"STARLINK-34252","OBJECT_ID":"2025-124P","EPOCH":"2026-02-17T00:00:01.999296","MEAN_MOTION":15.2755809,"ECCENTRICITY":0.0001244,"INCLINATION":43.0003,"RA_OF_ASC_NODE":238.7372,"ARG_OF_PERICENTER":269.1846,"MEAN_ANOMALY":110.357,"EPHEMERIS_TYPE":0,"CLASSIFICATION_TYPE":"U","NORAD_CAT_ID":64330,"ELEMENT_SET_NO":999,"REV_AT_EPOCH":587,"BSTAR":0.0027786,"MEAN_MOTION_DOT":0.0007695,"MEAN_MOTION_DDOT":0},{"OBJECT_NAME":"STARLINK-34050","OBJECT_ID":"2025-124Q","EPOCH":"2026-02-16T22:05:58.173216","MEAN_MOTION":15.27555446,"ECCENTRICITY":0.0002856,"INCLINATION":43.0024,"RA_OF_ASC_NODE":239.0474,"ARG_OF_PERICENTER":274.7022,"MEAN_ANOMALY":85.3503,"EPHEMERIS_TYPE":0,"CLASSIFICATION_TYPE":"U","NORAD_CAT_ID":64331,"ELEMENT_SET_NO":999,"REV_AT_EPOCH":3966,"BSTAR":0.001179,"MEAN_MOTION_DOT":0.00032303,"MEAN_MOTION_DDOT":0}]
